CTC2_L_00281016-03
1 10062U 23253IJ  26075.70043981  .00000000  00000+0  00000-0 0  9995
2 10062  75.0000 180.0000 0000000   0.0000   0.0000 13.89609395    16
CTC2_L_00281016-04
1 10063U 24597NO  26075.70043981  .00000000  00000+0  00000-0 0  9998
2 10063  75.0000 180.0000 0000000   0.0000  90.0000 13.89609395    16
CTC2_L_00281017-01
1 10064U 24880QX  26075.70043981  .00000000  00000+0  00000-0 0  9994
2 10064  75.0000 192.0000 0000000   0.0000 192.0000 13.89609395    13
CTC2_L_00281017-02
1 10065U 26582YV  26075.70043981  .00000000  00000+0  00000-0 0  9996
2 10065  75.0000 192.0000 0000000   0.0000 282.0000 13.89609395    14
CTC2_L_00281017-03
1 10066U 24174DK  26075.70043981  .00000000  00000+0  00000-0 0  9992
2 10066  75.0000 192.0000 0000000   0.0000  12.0000 13.89609395    16
CTC2_L_00281017-04
1 10067U 23387LP  26075.70043981  .00000000  00000+0  00000-0 0  9998
2 10067  75.0000 192.0000 0000000   0.0000 102.0000 13.89609395    17
CTC2_L_00281018-01
1 10068U 23517ZA  26075.70043981  .00000000  00000+0  00000-0 0  9994
2 10068  75.0000 204.0000 0000000   0.0000 204.0000 13.89609395    15
CTC2_L_00281018-02
1 10069U 24560DL  26075.70043981  .00000000  00000+0  00000-0 0  9994
2 10069  75.0000 204.0000 0000000   0.0000 294.0000 13.89609395    15
CTC2_L_00281018-03
1 10070U 23129R   26075.70043981  .00000000  00000+0  00000-0 0  9996
2 10070  75.0000 204.0000 0000000   0.0000  24.0000 13.89609395    18
CTC2_L_00281018-04
1 10071U 26845HK  26075.70043981  .00000000  00000+0  00000-0 0  9995
2 10071  75.0000 204.0000 0000000   0.0000 114.0000 13.89609395    19
CTC2_L_00281019-01
1 10072U 23501GV  26075.70043981  .00000000  00000+0  00000-0 0  9992
2 10072  75.0000 216.0000 0000000   0.0000 216.0000 13.89609395    16
CTC2_L_00281019-02
1 10073U 24046TL  26075.70043981  .00000000  00000+0  00000-0 0  9998
2 10073  75.0000 216.0000 0000000   0.0000 306.0000 13.89609395    17
CTC2_L_00281019-03
1 10074U 22941OT  26075.70043981  .00000000  00000+0  00000-0 0  9991
2 10074  75.0000 216.0000 0000000   0.0000  36.0000 13.89609395    18
CTC2_L_00281019-04
1 10075U 25370QM  26075.70043981  .00000000  00000+0  00000-0 0  9991
2 10075  75.0000 216.0000 0000000   0.0000 126.0000 13.89609395    19
CTC2_L_00281020-01
1 10076U 24724TJ  26075.70043981  .00000000  00000+0  00000-0 0  9994
2 10076  75.0000 228.0000 0000000   0.0000 228.0000 13.89609395    16
CTC2_L_00281020-02
1 10077U 25547JK  26075.70043981  .00000000  00000+0  00000-0 0  9999
2 10077  75.0000 228.0000 0000000   0.0000 318.0000 13.89609395    17
CTC2_L_00281020-03
1 10078U 26423MR  26075.70043981  .00000000  00000+0  00000-0 0  9994
2 10078  75.0000 228.0000 0000000   0.0000  48.0000 13.89609395    18
CTC2_L_00281020-04
1 10079U 22324LP  26075.70043981  .00000000  00000+0  00000-0 0  9991
2 10079  75.0000 228.0000 0000000   0.0000 138.0000 13.89609395    19
CTC2_L_00281021-01
1 10080U 22851AJ  26075.70043981  .00000000  00000+0  00000-0 0  9998
2 10080  75.0000 240.0000 0000000   0.0000 240.0000 13.89609395    19
CTC2_L_00281021-02
1 10081U 23912YP  26075.70043981  .00000000  00000+0  00000-0 0  9998
2 10081  75.0000 240.0000 0000000   0.0000 330.0000 13.89609395    10
CTC2_L_00281021-03
1 10082U 22957VZ  26075.70043981  .00000000  00000+0  00000-0 0  9997
2 10082  75.0000 240.0000 0000000   0.0000  60.0000 13.89609395    11
CTC2_L_00281021-04
1 10083U 23488PF  26075.70043981  .00000000  00000+0  00000-0 0  9998
2 10083  75.0000 240.0000 0000000   0.0000 150.0000 13.89609395    12
CTC2_L_00281022-01
1 10084U 23116IW  26075.70043981  .00000000  00000+0  00000-0 0  9997
2 10084  75.0000 252.0000 0000000   0.0000 252.0000 13.89609395    19
CTC2_L_00281022-02
1 10085U 26869HW  26075.70043981  .00000000  00000+0  00000-0 0  9996
2 10085  75.0000 252.0000 0000000   0.0000 342.0000 13.89609395    10
CTC2_L_00281022-03
1 10086U 24021NM  26075.70043981  .00000000  00000+0  00000-0 0  9995
2 10086  75.0000 252.0000 0000000   0.0000  72.0000 13.89609395    11
CTC2_L_00281022-04
1 10087U 25995JD  26075.70043981  .00000000  00000+0  00000-0 0  9997
2 10087  75.0000 252.0000 0000000   0.0000 162.0000 13.89609395    12
CTC2_L_00281023-01
1 10088U 22363DQ  26075.70043981  .00000000  00000+0  00000-0 0  9994
2 10088  75.0000 264.0000 0000000   0.0000 264.0000 13.89609395    19
CTC2_L_00281023-02
1 10089U 26086NH  26075.70043981  .00000000  00000+0  00000-0 0  9991
2 10089  75.0000 264.0000 0000000   0.0000 354.0000 13.89609395    10
CTC2_L_00281023-03
1 10090U 26022IB  26075.70043981  .00000000  00000+0  00000-0 0  9993
2 10090  75.0000 264.0000 0000000   0.0000  84.0000 13.89609395    12
CTC2_L_00281023-04
1 10091U 25636RR  26075.70043981  .00000000  00000+0  00000-0 0  9994
2 10091  75.0000 264.0000 0000000   0.0000 174.0000 13.89609395    13
CTC2_L_00281024-01
1 10092U 24472DQ  26075.70043981  .00000000  00000+0  00000-0 0  9992
2 10092  75.0000 276.0000 0000000   0.0000 276.0000 13.89609395    10
CTC2_L_00281024-02
1 10093U 26570YD  26075.70043981  .00000000  00000+0  00000-0 0  9994
2 10093  75.0000 276.0000 0000000   0.0000   6.0000 13.89609395    12
CTC2_L_00281024-03
1 10094U 23309VH  26075.70043981  .00000000  00000+0  00000-0 0  9992
2 10094  75.0000 276.0000 0000000   0.0000  96.0000 13.89609395    12
CTC2_L_00281024-04
1 10095U 23390GJ  26075.70043981  .00000000  00000+0  00000-0 0  9993
2 10095  75.0000 276.0000 0000000   0.0000 186.0000 13.89609395    13
CTC2_L_00281025-01
1 10096U 22211MT  26075.70043981  .00000000  00000+0  00000-0 0  9995
2 10096  75.0000 288.0000 0000000   0.0000 288.0000 13.89609395    10
CTC2_L_00281025-02
1 10097U 22817SS  26075.70043981  .00000000  00000+0  00000-0 0  9998
2 10097  75.0000 288.0000 0000000   0.0000  18.0000 13.89609395    12
CTC2_L_00281025-03
1 10098U 24578KK  26075.70043981  .00000000  00000+0  00000-0 0  9995
2 10098  75.0000 288.0000 0000000   0.0000 108.0000 13.89609395    13
CTC2_L_00281025-04
1 10099U 25803RV  26075.70043981  .00000000  00000+0  00000-0 0  9998
2 10099  75.0000 288.0000 0000000   0.0000 198.0000 13.89609395    13
CTC2_L_00281026-01
1 10100U 22110BK  26075.70043981  .00000000  00000+0  00000-0 0  9999
2 10100  75.0000 300.0000 0000000   0.0000 300.0000 13.89609395    16
CTC2_L_00281026-02
1 10101U 26172CM  26075.70043981  .00000000  00000+0  00000-0 0  9992
2 10101  75.0000 300.0000 0000000   0.0000  30.0000 13.89609395    17
CTC2_L_00281026-03
1 10102U 24900CQ  26075.70043981  .00000000  00000+0  00000-0 0  9990
2 10102  75.0000 300.0000 0000000   0.0000 120.0000 13.89609395    18
CTC2_L_00281026-04
1 10103U 24154GE  26075.70043981  .00000000  00000+0  00000-0 0  9992
2 10103  75.0000 300.0000 0000000   0.0000 210.0000 13.89609395    19
CTC2_L_00281027-01
1 10104U 25862S   26075.70043981  .00000000  00000+0  00000-0 0  9990
2 10104  75.0000 312.0000 0000000   0.0000 312.0000 13.89609395    16
CTC2_L_00281027-02
1 10105U 25796CS  26075.70043981  .00000000  00000+0  00000-0 0  9997
2 10105  75.0000 312.0000 0000000   0.0000  42.0000 13.89609395    17
CTC2_L_00281027-03
1 10106U 25710AA  26075.70043981  .00000000  00000+0  00000-0 0  9994
2 10106  75.0000 312.0000 0000000   0.0000 132.0000 13.89609395    18
CTC2_L_00281027-04
1 10107U 24185AN  26075.70043981  .00000000  00000+0  00000-0 0  9990
2 10107  75.0000 312.0000 0000000   0.0000 222.0000 13.89609395    19
CTC2_L_00281028-01
1 10108U 23796LU  26075.70043981  .00000000  00000+0  00000-0 0  9998
2 10108  75.0000 324.0000 0000000   0.0000 324.0000 13.89609395    16
CTC2_L_00281028-02
1 10109U 23212YJ  26075.70043981  .00000000  00000+0  00000-0 0  9992
2 10109  75.0000 324.0000 0000000   0.0000  54.0000 13.89609395    17
CTC2_L_00281028-03
1 10110U 26298E   26075.70043981  .00000000  00000+0  00000-0 0  9991
2 10110  75.0000 324.0000 0000000   0.0000 144.0000 13.89609395    19
CTC2_L_00281028-04
1 10111U 22323UQ  26075.70043981  .00000000  00000+0  00000-0 0  9997
2 10111  75.0000 324.0000 0000000   0.0000 234.0000 13.89609395    10
CTC2_L_00281029-01
1 10112U 24681OZ  26075.70043981  .00000000  00000+0  00000-0 0  9997
2 10112  75.0000 336.0000 0000000   0.0000 336.0000 13.89609395    17
CTC2_L_00281029-02
1 10113U 23797H   26075.70043981  .00000000  00000+0  00000-0 0  9995
2 10113  75.0000 336.0000 0000000   0.0000  66.0000 13.89609395    18
CTC2_L_00281029-03
1 10114U 26226SO  26075.70043981  .00000000  00000+0  00000-0 0  9996
2 10114  75.0000 336.0000 0000000   0.0000 156.0000 13.89609395    19
CTC2_L_00281029-04
1 10115U 25720FX  26075.70043981  .00000000  00000+0  00000-0 0  9995
2 10115  75.0000 336.0000 0000000   0.0000 246.0000 13.89609395    10
CTC2_L_00281030-01
1 10116U 25225KT  26075.70043981  .00000000  00000+0  00000-0 0  9996
2 10116  75.0000 348.0000 0000000   0.0000 348.0000 13.89609395    17
CTC2_L_00281030-02
1 10117U 23102NU  26075.70043981  .00000000  00000+0  00000-0 0  9999
2 10117  75.0000 348.0000 0000000   0.0000  78.0000 13.89609395    18
CTC2_L_00281030-03
1 10118U 26081MU  26075.70043981  .00000000  00000+0  00000-0 0  9999
2 10118  75.0000 348.0000 0000000   0.0000 168.0000 13.89609395    19
CTC2_L_00281030-04
1 10119U 26765KU  26075.70043981  .00000000  00000+0  00000-0 0  9999
2 10119  75.0000 348.0000 0000000   0.0000 258.0000 13.89609395    10
